{
    "links": {
        "self": "http://www.neowsapp.com/rest/v1/neo/3574772?api_key=iIulBulltgU6a56xZRHN4H3l9WmuAYTsLGpBGhQ2"
    },
    "id": "3574772",
    "neo_reference_id": "3574772",
    "name": "(2011 OB26)",
    "designation": "2011 OB26",
    "nasa_jpl_url": "http://ssd.jpl.nasa.gov/sbdb.cgi?sstr=3574772",
    "absolute_magnitude_h": 25.5,
    "estimated_diameter": {
        "kilometers": {
            "estimated_diameter_min": 0.0211132445,
            "estimated_diameter_max": 0.0472106499
        },
        "meters": {
            "estimated_diameter_min": 21.113244479,
            "estimated_diameter_max": 47.2106498806
        },
        "miles": {
            "estimated_diameter_min": 0.0131191578,
            "estimated_diameter_max": 0.0293353287
        },
        "feet": {
            "estimated_diameter_min": 69.2691770164,
            "estimated_diameter_max": 154.8905885541
        }
    },
    "is_potentially_hazardous_asteroid": false,
    "close_approach_data": [
        {
            "close_approach_date": "2011-08-06",
            "close_approach_date_full": "2011-Aug-06 18:04",
            "epoch_date_close_approach": 1312653840000,
            "relative_velocity": {
                "kilometers_per_second": "11.8066839868",
                "kilometers_per_hour": "42504.062352444",
                "miles_per_hour": "26410.3714100506"
            },
            "miss_distance": {
                "astronomical": "0.0276214047",
                "lunar": "10.7447264283",
                "kilometers": "4132103.309527989",
                "miles": "2567569.9367406882"
            },
            "orbiting_body": "Earth"
        },
        {
            "close_approach_date": "2013-12-16",
            "close_approach_date_full": "2013-Dec-16 23:44",
            "epoch_date_close_approach": 1387237440000,
            "relative_velocity": {
                "kilometers_per_second": "19.0674801398",
                "kilometers_per_hour": "68642.9285033315",
                "miles_per_hour": "42652.0463247506"
            },
            "miss_distance": {
                "astronomical": "0.2694801711",
                "lunar": "104.8277865579",
                "kilometers": "40313659.603795557",
                "miles": "25049746.5056184066"
            },
            "orbiting_body": "Earth"
        }
    ],
    "orbital_data": {
        "orbit_id": "13",
        "orbit_determination_date": "2019-04-23 07:24:10",
        "first_observation_date": "2011-07-25",
        "last_observation_date": "2011-08-07",
        "data_arc_in_days": 13,
        "observations_used": 32,
        "orbit_uncertainty": "8",
        "minimum_orbit_intersection": ".00106637",
        "jupiter_tisserand_invariant": "4.130",
        "epoch_osculation": "2455772.5",
        "eccentricity": ".4779224527538894",
        "semi_major_axis": "1.65777213353305",
        "inclination": "1.762810965280496",
        "ascending_node_longitude": "138.7376471666082",
        "orbital_period": "779.6248606707666",
        "perihelion_distance": ".8654856093678863",
        "perihelion_argument": "234.7974736994287",
        "aphelion_distance": "2.450058657698213",
        "perihelion_time": "2455824.236152370043",
        "mean_anomaly": "336.1102861224935",
        "mean_motion": ".4617605442831395",
        "equinox": "J2000",
        "orbit_class": {
            "orbit_class_type": "APO",
            "orbit_class_description": "Near-Earth asteroid orbits which cross the Earth’s orbit similar to that of 1862 Apollo",
            "orbit_class_range": "a (semi-major axis) > 1.0 AU; q (perihelion) < 1.017 AU"
        }
    },
    "is_sentry_object": false
}